ONEWEB-0589             
1 54655U 22166P   24263.57385666  .00000146  00000+0  32312-3 0  9999
2 54655  87.9365  10.5478 0001146  76.4665 283.6597 13.21830065 88045
ONEWEB-0590             
1 54656U 22166Q   24262.84056607 -.00000008  00000+0 -50442-4 0  9993
2 54656  87.9369  10.7037 0001918  94.9161 265.2192 13.21823481 87462
ONEWEB-0591             
1 54657U 22166R   24263.53445144  .00000076  00000+0  15345-3 0  9994
2 54657  87.9365  10.5583 0001718  96.1426 263.9904 13.21828137 88043
ONEWEB-0592             
1 54658U 22166S   24262.85632630  .00000054  00000+0  98120-4 0  9996
2 54658  87.9359  10.6549 0001724  94.4520 265.6810 13.21829050 87378
ONEWEB-0593             
1 54659U 22166T   24263.56125329 -.00000060  00000+0 -17626-3 0  9998
2 54659  87.9362  10.5437 0001633  96.0033 264.1287 13.21825025 88049
ONEWEB-0594             
1 54660U 22166U   24262.82321885  .00000011  00000+0 -39493-5 0  9996
2 54660  87.9367  10.6930 0001831 103.5549 256.5789 13.21828274 87490
ONEWEB-0595             
1 54661U 22166V   24263.55810644  .00000193  00000+0  43576-3 0  9999
2 54661  87.9363  10.5324 0002081  99.9528 260.1840 13.21829089 88031
ONEWEB-0596             
1 54662U 22166W   24263.53130539  .00000064  00000+0  12255-3 0  9993
2 54662  87.9368  10.5453 0001747  90.2777 269.8557 13.21826037 88039
ONEWEB-0597             
1 54663U 22166X   24262.83111247  .00000015  00000+0  49697-5 0  9999
2 54663  87.9370  10.6862 0001514  97.1389 262.9917 13.21825514 87475
ONEWEB-0600             
1 54664U 22166Y   24263.57073047  .00000153  00000+0  33831-3 0  9991
2 54664  87.9361  10.5743 0001699 100.2177 259.9149 13.21826382 88016
ONEWEB-0601             
1 54665U 22166Z   24263.56283468  .00000119  00000+0  25591-3 0  9997
2 54665  87.9367  10.5471 0001514  87.5318 272.5990 13.21829274 88198
ONEWEB-0602             
1 54666U 22166AA  24263.22536118  .00000108  00000+0  23089-3 0  9992
2 54666  87.9369  10.6171 0001497  94.1194 266.0111 13.21828294 88009
ONEWEB-0603             
1 54667U 22166AB  24263.23009778  .00000154  00000+0  34125-3 0  9995
2 54667  87.9371  10.6193 0001469  93.2202 266.9100 13.21826418 87929
ONEWEB-0604             
1 54668U 22166AC  24262.83898115 -.00000202  00000+0 -51952-3 0  9995
2 54668  87.9356  10.6704 0001560 105.4397 254.6909 13.21828170 87371
ONEWEB-0605             
1 54669U 22166AD  24262.83267884 -.00000029  00000+0 -10063-3 0  9994
2 54669  87.9362  10.7028 0001645  81.0922 279.0398 13.21825703 87446
ONEWEB-0606             
1 54670U 22166AE  24262.85475718  .00000044  00000+0  74359-4 0  9999
2 54670  87.9367  10.6943 0001975 101.6372 258.4984 13.21828933 87509
ONEWEB-0607             
1 54671U 22166AF  24263.57861709  .00000131  00000+0  28533-3 0  9998
2 54671  87.9364  10.5254 0001601  97.1745 262.9571 13.21827471 88037
ONEWEB-0608             
1 54672U 22166AG  24263.58489918 -.00000261  00000+0 -66257-3 0  9999
2 54672  87.9371  10.5509 0001395  87.5850 272.5444 13.21831723 88041
ONEWEB-0610             
1 54673U 22166AH  24263.56598221  .00000113  00000+0  24297-3 0  9998
2 54673  87.9364  10.5450 0001520  87.5952 272.5356 13.21829300 87951
ONEWEB-0611             
1 54674U 22166AJ  24263.55967778  .00000123  00000+0  26665-3 0  9997
2 54674  87.9363  10.5447 0002111 108.7324 251.4039 13.21829154 87943
ONEWEB-0612             
1 54675U 22166AK  24263.57230710  .00000185  00000+0  41725-3 0  9991
2 54675  87.9362  10.5235 0001663  94.2229 265.9095 13.21827987 87935
ONEWEB-0615             
1 54676U 22166AL  24262.87210384 -.00001165  00000+0 -28522-2 0  9999
2 54676  87.9361  10.6892 0001657  96.1290 264.0032 13.21823784 87850
ONEWEB-0655             
1 54677U 22166AM  24263.29948489  .00000070  00000+0  13800-3 0  9997
2 54677  87.9364  10.6058 0001388 108.9343 251.1942 13.21827347 87902
ONEWEB-0659             
1 54678U 22166AN  24262.86265348  .00000051  00000+0  91566-4 0  9991
2 54678  87.9361  10.6975 0002045 100.9490 259.1874 13.21825388 87460
ONEWEB-0685             
1 54679U 22166AP  24263.54547253  .00000106  00000+0  22457-3 0  9999
2 54679  87.9364  10.5526 0001576 101.9703 258.1607 13.21825637 87911
ONEWEB-0712             
1 54680U 22166AQ  24262.81687300 -.00000033  00000+0 -11788-3 0  9994
2 54680  87.9172 355.5048 0002143 112.0834 248.0525 13.17114775 88782
ONEWEB-0714             
1 54681U 22166AR  24263.55180280  .00000154  00000+0  34045-3 0  9995
2 54681  87.9363  10.5391 0001550 100.9380 259.1928 13.21828342 88032
ONEWEB-0532             
1 55140U 23004A   24263.06758960 -.00003106  00000+0 -80387-2 0  9991
2 55140  87.9127 132.5728 0002074  62.5868 297.5474 13.17625082 83810
ONEWEB-0533             
1 55141U 23004B   24262.64838872  .00000029  00000+0  43878-4 0  9991
2 55141  87.8875 117.4241 0001591  83.3142 276.8168 13.12442804 84568
ONEWEB-0541             
1 55142U 23004C   24262.71463177  .00000278  00000+0  74991-3 0  9997
2 55142  87.8969 147.8156 0001637  74.6484 285.4825 13.11412496 82521
ONEWEB-0543             
1 55143U 23004D   24263.54680540  .00000640  00000+0  15897-2 0  9997
2 55143  87.9055 102.0704 0001603 103.9146 256.2164 13.18685216 85923
ONEWEB-0544             
1 55144U 23004E   24263.08521131 -.00000178  00000+0 -48397-3 0  9997
2 55144  87.9056 102.1488 0001885  89.0066 271.1282 13.18684693 85860
ONEWEB-0560             
1 55145U 23004F   24263.07890930  .00000071  00000+0  14855-3 0  9995
2 55145  87.9061 102.1068 0001961  96.2474 263.8882 13.18686353 85879
ONEWEB-0565             
1 55146U 23004G   24263.07256290 -.00000163  00000+0 -44689-3 0  9993
2 55146  87.9055 102.1816 0002431  84.2719 275.8690 13.18686336 85866
ONEWEB-0567             
1 55147U 23004H   24263.06627061  .00000059  00000+0  11646-3 0  9990
2 55147  87.9057 102.1367 0002254  92.2235 267.9155 13.18684473 85863
ONEWEB-0569             
1 55148U 23004J   24262.92427515 -.00000226  00000+0 -65426-3 0  9990
2 55148  87.8854  86.8017 0002674 105.0354 255.1071 13.13468435 86656
ONEWEB-0570             
1 55149U 23004K   24262.59833677  .00000079  00000+0  16831-3 0  9994
2 55149  87.9060 102.2292 0002233  67.9654 292.1715 13.18688140 85797
ONEWEB-0571             
1 55150U 23004L   24263.04729892  .00000132  00000+0  30179-3 0  9991
2 55150  87.9060 102.1459 0002815  86.5349 273.6105 13.18686958 85867
ONEWEB-0572             
1 55151U 23004M   24262.71857494 -.00000690  00000+0 -18105-2 0  9990
2 55151  87.9127 132.6501 0002028  75.2076 284.9280 13.17647631 83665
ONEWEB-0573             
1 55152U 23004N   24262.58571682  .00000080  00000+0  17126-3 0  9992
2 55152  87.9056 102.2548 0002731  80.9705 279.1736 13.18686874 85795
ONEWEB-0588             
1 55153U 23004P   24262.57938434  .00000023  00000+0  25003-4 0  9995
2 55153  87.9062 102.2273 0002206  74.3750 285.7626 13.18687177 85790
ONEWEB-0598             
1 55154U 23004Q   24262.61630312  .00000117  00000+0  29344-3 0  9990
2 55154  87.8963 147.8734 0002401  82.9983 277.1418 13.11413822 82469
ONEWEB-0599             
1 55155U 23004R   24262.60386486 -.00000068  00000+0 -20787-3 0  9999
2 55155  87.9135 132.6618 0001808  84.8214 275.3124 13.17647890 83659
ONEWEB-0614             
1 55156U 23004S   24263.22159437  .00000439  00000+0  12027-2 0  9990
2 55156  87.8965 147.7589 0001736  61.1052 299.0250 13.11414058 82500
ONEWEB-0616             
1 55157U 23004T   24262.72182553 -.00001839  00000+0 -47718-2 0  9992
2 55157  87.9137 132.6423 0001615 122.1267 238.0021 13.17635490 83887
ONEWEB-0617             
1 55158U 23004U   24263.43861512  .00000662  00000+0  18321-2 0  9990
2 55158  87.8961 147.7078 0001980  63.9452 296.1880 13.11415887 82548
ONEWEB-0618             
1 55159U 23004V   24262.79861929 -.00001712  00000+0 -70968-3 0  9996
2 55159  86.9036  60.1008 0012600 350.7817   9.3142 14.27153743 88691
ONEWEB-0619             
1 55160U 23004W   24262.60223846 -.00000590  00000+0 -15525-2 0  9998
2 55160  87.9130 132.6428 0001319  62.5431 297.5835 13.17649340 83769
ONEWEB-0620             
1 55161U 23004X   24263.12834034  .00000532  00000+0  14648-2 0  9993
2 55161  87.8965 147.7817 0002197  67.8037 292.3323 13.11415705 82460
ONEWEB-0621             
1 55162U 23004Y   24263.38435600  .00000100  00000+0  24578-3 0  9993
2 55162  87.8962 147.6969 0001521  67.2719 292.8570 13.11414643 82500
ONEWEB-0622             
1 55163U 23004Z   24262.70276980 -.00000337  00000+0 -98808-3 0  9994
2 55163  87.8962 147.8497 0002287  54.0859 306.0481 13.11415739 82379
ONEWEB-0623             
1 55164U 23004AA  24263.35672648  .00004520  00000+0  11598-1 0  9993
2 55164  87.9137 132.5460 0002321  58.0620 302.0737 13.17682832 83855
ONEWEB-0624             
1 55165U 23004AB  24262.61446608 -.00000064  00000+0 -21307-3 0  9999
2 55165  87.8879 117.4401 0001660  74.7862 285.3450 13.12441196 84557
ONEWEB-0625             
1 55166U 23004AC  24263.11771374 -.00007615  00000+0 -19678-1 0  9992
2 55166  87.9131 132.5930 0001708  79.1328 280.9996 13.17592518 83818
ONEWEB-0626             
1 55167U 23004AD  24263.33580407 -.00004043  00000+0 -10457-1 0  9990
2 55167  87.9131 132.5500 0002393  81.4163 278.7240 13.17609263 83842
ONEWEB-0627             
1 55168U 23004AE  24262.64103469  .00000082  00000+0  17778-3 0  9995
2 55168  87.9133 132.6896 0001945  58.3277 301.8044 13.17650067 83753
ONEWEB-0628             
1 55169U 23004AF  24262.59500032  .00000434  00000+0  11716-2 0  9993
2 55169  87.8870 117.4291 0001468  52.9893 307.1370 13.12440936 84530
ONEWEB-0629             
1 55170U 23004AG  24263.07238560  .00002782  00000+0  71267-2 0  9998
2 55170  87.9124 132.5806 0001311  71.4270 288.7004 13.17672853 83815
ONEWEB-0631             
1 55171U 23004AH  24262.57306120  .00000064  00000+0  12932-3 0  9997
2 55171  87.9068 102.1394 0002367  80.3575 279.7825 13.18682884 85771
